ONEWEB-0340             
1 49206U 21083W   25154.20699235  .00000103  00000+0  22870-3 0  9993
2 49206  87.9156  50.7668 0001953  76.8706 283.2644 13.18686027181318
ONEWEB-0341             
1 49207U 21083X   25153.75963223 -.00000009  00000+0 -55769-4 0  9995
2 49207  87.9159  50.8660 0002464  84.2778 275.8635 13.18685251181275
ONEWEB-0342             
1 49208U 21083Y   25154.11237628  .00000110  00000+0  23756-3 0  9991
2 49208  87.9254 349.9382 0001806  92.5846 267.5494 13.20771088188042
ONEWEB-0343             
1 49209U 21083Z   25154.21015176  .00000080  00000+0  16939-3 0  9996
2 49209  87.9156  50.7634 0002417  90.4095 269.7314 13.18687952181381
ONEWEB-0344             
1 49210U 21083AA  25153.22218583  .00000010  00000+0 -69625-5 0  9991
2 49210  87.8986  35.7853 0002297  80.7394 279.3994 13.13469811182311
ONEWEB-0345             
1 49211U 21083AB  25153.89932387  .00000275  00000+0  71890-3 0  9997
2 49211  87.8983  35.6041 0002357  80.5714 279.5681 13.13470819182414
ONEWEB-0346             
1 49212U 21083AC  25153.76438005  .00000004  00000+0 -23444-4 0  9996
2 49212  87.9157  50.8743 0001918  60.5695 299.5629 13.18686196181263
ONEWEB-0348             
1 49213U 21083AD  25153.11807386  .00000113  00000+0  24712-3 0  9996
2 49213  87.9263 350.1410 0002297  75.5691 284.5697 13.20771888187948
